{"type": "FeatureCollection", "features": [ {"type": "Feature", "properties": {"norad_id": 41836, "name": "HIMAWARI-9", "group": "weather", "lat": -0.023853907260602113, "lon": -53.443378986518155, "alt_km": 35782.339611527044, "timestamp": "2025-12-10T05:46:13.440355+00:00", "meta": {"OBJECT_NAME": "HIMAWARI-9", "OBJECT_ID": "2016-064A", "EPOCH": "2025-12-09T14:54:38.529792", "MEAN_MOTION": 1.00272402, "ECCENTRICITY": 0.0001201, "INCLINATION": 0.0241, "RA_OF_ASC_NODE": 76.4244, "ARG_OF_PERICENTER": 185.8518, "MEAN_ANOMALY": 180.7669, "EPHEMERIS_TYPE": 0, "CLASSIFICATION_TYPE": "U", "NORAD_CAT_ID": 41836, "ELEMENT_SET_NO": 999, "REV_AT_EPOCH": 3330, "BSTAR": 0, "MEAN_MOTION_DOT": -2.72e-06, "MEAN_MOTION_DDOT": 0}, "tle": {"line1": "1 41836U 16064A   25343.62127928 -.00000272  00000+0  00000+0 0  9993", "line2": "2 41836   0.0241  76.4244 0001201 185.8518 180.7669  1.00272402 33302"}}, "geometry": {"type": "Point", "coordinates": [-53.443378986518155, -0.023853907260602113]}}, {"type": "Feature", "properties": {"norad_id": 41866, "name": "GOES 16", "group": "weather", "lat": -0.021714682176982945, "lon": 61.112725276076766, "alt_km": 35799.72442268319, "timestamp": "2025-12-10T05:46:13.440367+00:00", "meta": {"OBJECT_NAME": "GOES 16", "OBJECT_ID": "2016-071A", "EPOCH": "2025-12-09T17:18:03.588768", "MEAN_MOTION": 1.00271119, "ECCENTRICITY": 0.0003383, "INCLINATION": 0.0636, "RA_OF_ASC_NODE": 105.8807, "ARG_OF_PERICENTER": 155.353, "MEAN_ANOMALY": 332.3167, "EPHEMERIS_TYPE": 0, "CLASSIFICATION_TYPE": "U", "NORAD_CAT_ID": 41866, "ELEMENT_SET_NO": 999, "REV_AT_EPOCH": 3320, "BSTAR": 0, "MEAN_MOTION_DOT": -8.8e-07, "MEAN_MOTION_DDOT": 0}, "tle": {"line1": "1 41866U 16071A   25343.72087487 -.00000088  00000+0  00000+0 0  9995", "line2": "2 41866   0.0636 105.8807 0003383 155.3530 332.3167  1.00271119 33205"}}, "geometry": {"type": "Point", "coordinates": [61.112725276076766, -0.021714682176982945]}}, {"type": "Feature", "properties": {"norad_id": 41882, "name": "FENGYUN 4A", "group": "weather", "lat": -0.8604786936502686, "lon": -70.33233023476672, "alt_km": 35776.22994939771, "timestamp": "2025-12-10T05:46:13.440378+00:00", "meta": {"OBJECT_NAME": "FENGYUN 4A", "OBJECT_ID": "2016-077A", "EPOCH": "2025-12-08T17:16:38.775936", "MEAN_MOTION": 1.00275455, "ECCENTRICITY": 0.00049335, "INCLINATION": 1.839, "RA_OF_ASC_NODE": 82.4323, "ARG_OF_PERICENTER": 143.079, "MEAN_ANOMALY": 235.2066, "EPHEMERIS_TYPE": 0, "CLASSIFICATION_TYPE": "U", "NORAD_CAT_ID": 41882, "ELEMENT_SET_NO": 999, "REV_AT_EPOCH": 3302, "BSTAR": 0, "MEAN_MOTION_DOT": -3.55e-06, "MEAN_MOTION_DDOT": 0}, "tle": {"line1": "1 41882U 16077A   25342.71989324 -.00000355  00000+0  00000+0 0  9995", "line2": "2 41882   1.8390  82.4323 0004933 143.0790 235.2066  1.00275455 33022"}}, "geometry": {"type": "Point", "coordinates": [-70.33233023476672, -0.8604786936502686]}}, {"type": "Feature", "properties": {"norad_id": 41884, "name": "CYGFM05", "group": "weather", "lat": 34.81723542547517, "lon": 158.94131825166346, "alt_km": 414.9197682052636, "timestamp": "2025-12-10T05:46:13.440390+00:00", "meta": {"OBJECT_NAME": "CYGFM05", "OBJECT_ID": "2016-078A", "EPOCH": "2025-12-09T13:52:51.612096", "MEAN_MOTION": 15.47454273, "ECCENTRICITY": 0.0009703, "INCLINATION": 34.9598, "RA_OF_ASC_NODE": 67.7793, "ARG_OF_PERICENTER": 153.8808, "MEAN_ANOMALY": 206.2405, "EPHEMERIS_TYPE": 0, "CLASSIFICATION_TYPE": "U", "NORAD_CAT_ID": 41884, "ELEMENT_SET_NO": 999, "REV_AT_EPOCH": 49927, "BSTAR": 0.00049142, "MEAN_MOTION_DOT": 0.0002606, "MEAN_MOTION_DDOT": 0}, "tle": {"line1": "1 41884U 16078A   25343.57837514  .00026060  00000+0  49142-3 0  9990", "line2": "2 41884  34.9598  67.7793 0009703 153.8808 206.2405 15.47454273499278"}}, "geometry": {"type": "Point", "coordinates": [158.94131825166346, 34.81723542547517]}}, {"type": "Feature", "properties": {"norad_id": 41885, "name": "CYGFM04", "group": "weather", "lat": -26.219129437223252, "lon": -6.567171827571713, "alt_km": 420.8626646864832, "timestamp": "2025-12-10T05:46:13.440400+00:00", "meta": {"OBJECT_NAME": "CYGFM04", "OBJECT_ID": "2016-078B", "EPOCH": "2025-12-09T14:31:54.391296", "MEAN_MOTION": 15.50154602, "ECCENTRICITY": 0.0009067, "INCLINATION": 34.9356, "RA_OF_ASC_NODE": 42.4688, "ARG_OF_PERICENTER": 182.7404, "MEAN_ANOMALY": 177.327, "EPHEMERIS_TYPE": 0, "CLASSIFICATION_TYPE": "U", "NORAD_CAT_ID": 41885, "ELEMENT_SET_NO": 999, "REV_AT_EPOCH": 49945, "BSTAR": 0.00051178, "MEAN_MOTION_DOT": 0.00029862, "MEAN_MOTION_DDOT": 0}, "tle": {"line1": "1 41885U 16078B   25343.60549064  .00029862  00000+0  51178-3 0  9990", "line2": "2 41885  34.9356  42.4688 0009067 182.7404 177.3270 15.50154602499455"}}, "geometry": {"type": "Point", "coordinates": [-6.567171827571713, -26.219129437223252]}}, {"type": "Feature", "properties": {"norad_id": 41886, "name": "CYGFM02", "group": "weather", "lat": -25.961552414436028, "lon": -7.548737948979275, "alt_km": 417.5647147486652, "timestamp": "2025-12-10T05:46:13.440411+00:00", "meta": {"OBJECT_NAME": "CYGFM02", "OBJECT_ID": "2016-078C", "EPOCH": "2025-12-09T12:59:53.719872", "MEAN_MOTION": 15.51515915, "ECCENTRICITY": 0.001075, "INCLINATION": 34.9444, "RA_OF_ASC_NODE": 41.2551, "ARG_OF_PERICENTER": 181.5445, "MEAN_ANOMALY": 178.5246, "EPHEMERIS_TYPE": 0, "CLASSIFICATION_TYPE": "U", "NORAD_CAT_ID": 41886, "ELEMENT_SET_NO": 999, "REV_AT_EPOCH": 49957, "BSTAR": 0.00051269, "MEAN_MOTION_DOT": 0.00031436, "MEAN_MOTION_DDOT": 0}, "tle": {"line1": "1 41886U 16078C   25343.54159398  .00031436  00000+0  51269-3 0  9992", "line2": "2 41886  34.9444  41.2551 0010750 181.5445 178.5246 15.51515915499571"}}, "geometry": {"type": "Point", "coordinates": [-7.548737948979275, -25.961552414436028]}}, {"type": "Feature", "properties": {"norad_id": 41887, "name": "CYGFM01", "group": "weather", "lat": 24.49328196491255, "lon": -154.90676197938018, "alt_km": 411.6548525410026, "timestamp": "2025-12-10T05:46:13.440421+00:00", "meta": {"OBJECT_NAME": "CYGFM01", "OBJECT_ID": "2016-078D", "EPOCH": "2025-12-09T15:16:01.554240", "MEAN_MOTION": 15.48030549, "ECCENTRICITY": 0.0009257, "INCLINATION": 34.9428, "RA_OF_ASC_NODE": 69.7736, "ARG_OF_PERICENTER": 146.0748, "MEAN_ANOMALY": 214.0567, "EPHEMERIS_TYPE": 0, "CLASSIFICATION_TYPE": "U", "NORAD_CAT_ID": 41887, "ELEMENT_SET_NO": 999, "REV_AT_EPOCH": 49922, "BSTAR": 0.0005095, "MEAN_MOTION_DOT": 0.00027573, "MEAN_MOTION_DDOT": 0}, "tle": {"line1": "1 41887U 16078D   25343.63612910  .00027573  00000+0  50950-3 0  9990", "line2": "2 41887  34.9428  69.7736 0009257 146.0748 214.0567 15.48030549499221"}}, "geometry": {"type": "Point", "coordinates": [-154.90676197938018, 24.49328196491255]}}, {"type": "Feature", "properties": {"norad_id": 41888, "name": "CYGFM08", "group": "weather", "lat": 5.025588505795844, "lon": -138.39061791433085, "alt_km": 409.56189897359945, "timestamp": "2025-12-10T05:46:13.440432+00:00", "meta": {"OBJECT_NAME": "CYGFM08", "OBJECT_ID": "2016-078E", "EPOCH": "2025-12-09T15:07:00.594336", "MEAN_MOTION": 15.49227132, "ECCENTRICITY": 0.0011141, "INCLINATION": 34.9464, "RA_OF_ASC_NODE": 52.8424, "ARG_OF_PERICENTER": 170.6164, "MEAN_ANOMALY": 189.4767, "EPHEMERIS_TYPE": 0, "CLASSIFICATION_TYPE": "U", "NORAD_CAT_ID": 41888, "ELEMENT_SET_NO": 999, "REV_AT_EPOCH": 49945, "BSTAR": 0.00051607, "MEAN_MOTION_DOT": 0.0002916, "MEAN_MOTION_DDOT": 0}, "tle": {"line1": "1 41888U 16078E   25343.62986799  .00029160  00000+0  51607-3 0  9993", "line2": "2 41888  34.9464  52.8424 0011141 170.6164 189.4767 15.49227132499458"}}, "geometry": {"type": "Point", "coordinates": [-138.39061791433085, 5.025588505795844]}}, {"type": "Feature", "properties": {"norad_id": 41890, "name": "CYGFM07", "group": "weather", "lat": 14.742598683593082, "lon": -164.2967046004609, "alt_km": 409.05509358592917, "timestamp": "2025-12-10T05:46:13.440443+00:00", "meta": {"OBJECT_NAME": "CYGFM07", "OBJECT_ID": "2016-078G", "EPOCH": "2025-12-09T13:39:05.039712", "MEAN_MOTION": 15.4979977, "ECCENTRICITY": 0.0009553, "INCLINATION": 34.9481, "RA_OF_ASC_NODE": 42.2409, "ARG_OF_PERICENTER": 187.8232, "MEAN_ANOMALY": 172.2342, "EPHEMERIS_TYPE": 0, "CLASSIFICATION_TYPE": "U", "NORAD_CAT_ID": 41890, "ELEMENT_SET_NO": 999, "REV_AT_EPOCH": 49946, "BSTAR": 0.00050008, "MEAN_MOTION_DOT": 0.00028813, "MEAN_MOTION_DDOT": 0}, "tle": {"line1": "1 41890U 16078G   25343.56880833  .00028813  00000+0  50008-3 0  9999", "line2": "2 41890  34.9481  42.2409 0009553 187.8232 172.2342 15.49799770499468"}}, "geometry": {"type": "Point", "coordinates": [-164.2967046004609, 14.742598683593082]}}, {"type": "Feature", "properties": {"norad_id": 41891, "name": "CYGFM03", "group": "weather", "lat": -6.163956739919766, "lon": 30.858022213696504, "alt_km": 423.009782686946, "timestamp": "2025-12-10T05:46:13.440454+00:00", "meta": {"OBJECT_NAME": "CYGFM03", "OBJECT_ID": "2016-078H", "EPOCH": "2025-12-09T14:21:23.159808", "MEAN_MOTION": 15.49703336, "ECCENTRICITY": 0.000885, "INCLINATION": 34.9436, "RA_OF_ASC_NODE": 43.965, "ARG_OF_PERICENTER": 175.1445, "MEAN_ANOMALY": 184.9364, "EPHEMERIS_TYPE": 0, "CLASSIFICATION_TYPE": "U", "NORAD_CAT_ID": 41891, "ELEMENT_SET_NO": 999, "REV_AT_EPOCH": 49944, "BSTAR": 0.00050549, "MEAN_MOTION_DOT": 0.00029019, "MEAN_MOTION_DDOT": 0}, "tle": {"line1": "1 41891U 16078H   25343.59818472  .00029019  00000+0  50549-3 0  9992", "line2": "2 41891  34.9436  43.9650 0008850 175.1445 184.9364 15.49703336499445"}}, "geometry": {"type": "Point", "coordinates": [30.858022213696504, -6.163956739919766]}}]}